PHISAT 2                
1 60470U 24149C   26068.78834181  .00008925  00000+0  31421-3 0  9996
2 60470  97.3806 148.6498 0001175 168.6230 191.5037 15.29548631 86792
STARLINK-35510          
1 66397U 25257T   26068.72847581  .00035149  00000+0  11929-2 0  9991
2 66397  53.1604 216.5401 0000704  70.6158 289.4918 15.30208609 19745
